ONEWEB-0685             
1 54679U 22166AP  24171.65004116  .00000035  00000+0  54124-4 0  9993
2 54679  87.9287  28.8149 0001889  93.7362 266.3988 13.21827179 75300
ONEWEB-0712             
1 54680U 22166AQ  24171.64800972  .00000094  00000+0  21251-3 0  9997
2 54680  87.9101  13.6211 0002213  79.9165 280.2215 13.16594018 76326
ONEWEB-0532             
1 55140U 23004A   24171.94396934 -.00002836  00000+0 -73439-2 0  9994
2 55140  87.9172 150.6350 0001426  87.1833 272.9462 13.17611830 71814
ONEWEB-0533             
1 55141U 23004B   24171.92615080 -.00000417  00000+0 -11949-2 0  9990
2 55141  87.8947 135.4485 0002151  87.3500 272.7874 13.12445356 72665
ONEWEB-0541             
1 55142U 23004C   24171.92148861 -.00000227  00000+0 -67558-3 0  9996
2 55142  87.8958 165.7739 0001988  88.2188 271.9167 13.11414480 70628
ONEWEB-0543             
1 55143U 23004D   24171.88798514  .00000111  00000+0  24808-3 0  9999
2 55143  87.9142 120.3331 0002463  82.7754 277.3657 13.18684473 73846
ONEWEB-0544             
1 55144U 23004E   24171.88166242  .00000023  00000+0  25589-4 0  9997
2 55144  87.9144 120.3195 0002065  78.1239 282.0125 13.18684834 73846
